[
  {
    "COMMENT": "GENERATED VIA SPACETRACK.ORG API",
    "ORIGINATOR": "18 SPCS",
    "NORAD_CAT_ID": "39086",
    "OBJECT_NAME": "SARAL",
    "OBJECT_TYPE": "PAYLOAD",
    "CLASSIFICATION_TYPE": "U",
    "INTLDES": "13009A",
    "EPOCH": "2023-05-12 02:53:13",
    "EPOCH_MICROSECONDS": "469856",
    "MEAN_MOTION": "14.32188161",
    "ECCENTRICITY": "0.0002684",
    "INCLINATION": "98.5483",
    "RA_OF_ASC_NODE": "317.9357",
    "ARG_OF_PERICENTER": "55.8631",
    "MEAN_ANOMALY": "304.2807",
    "EPHEMERIS_TYPE": "0",
    "ELEMENT_SET_NO": "999",
    "REV_AT_EPOCH": "53352",
    "BSTAR": "0.000091092",
    "MEAN_MOTION_DOT": "0.00000202",
    "MEAN_MOTION_DDOT": "0",
    "FILE": "3905615",
    "TLE_LINE0": "0 SARAL",
    "TLE_LINE1": "1 39086U 13009A   23132.12029479  .00000202  00000-0  91092-4 0  9993",
    "TLE_LINE2": "2 39086  98.5483 317.9357 0002684  55.8631 304.2807 14.32188161533525",
    "OBJECT_ID": "2013-009A",
    "OBJECT_NUMBER": "39086",
    "SEMIMAJOR_AXIS": "7162.563",
    "PERIOD": "100.545",
    "APOGEE": "786.350",
    "PERIGEE": "782.506",
    "DECAYED": "0"
  },
  {
    "COMMENT": "GENERATED VIA SPACETRACK.ORG API",
    "ORIGINATOR": "18 SPCS",
    "NORAD_CAT_ID": "39086",
    "OBJECT_NAME": "SARAL",
    "OBJECT_TYPE": "PAYLOAD",
    "CLASSIFICATION_TYPE": "U",
    "INTLDES": "13009A",
    "EPOCH": "2023-05-12 12:56:50",
    "EPOCH_MICROSECONDS": "562240",
    "MEAN_MOTION": "14.32188419",
    "ECCENTRICITY": "0.000267",
    "INCLINATION": "98.5483",
    "RA_OF_ASC_NODE": "318.3488",
    "ARG_OF_PERICENTER": "55.0236",
    "MEAN_ANOMALY": "305.1198",
    "EPHEMERIS_TYPE": "0",
    "ELEMENT_SET_NO": "999",
    "REV_AT_EPOCH": "53358",
    "BSTAR": "0.000096195",
    "MEAN_MOTION_DOT": "0.00000215",
    "MEAN_MOTION_DDOT": "0",
    "FILE": "3905921",
    "TLE_LINE0": "0 SARAL",
    "TLE_LINE1": "1 39086U 13009A   23132.53947410  .00000215  00000-0  96195-4 0  9995",
    "TLE_LINE2": "2 39086  98.5483 318.3488 0002670  55.0236 305.1198 14.32188419533588",
    "OBJECT_ID": "2013-009A",
    "OBJECT_NUMBER": "39086",
    "SEMIMAJOR_AXIS": "7162.562",
    "PERIOD": "100.545",
    "APOGEE": "786.340",
    "PERIGEE": "782.515",
    "DECAYED": "0"
  },
  {
    "COMMENT": "GENERATED VIA SPACETRACK.ORG API",
    "ORIGINATOR": "18 SPCS",
    "NORAD_CAT_ID": "39086",
    "OBJECT_NAME": "SARAL",
    "OBJECT_TYPE": "PAYLOAD",
    "CLASSIFICATION_TYPE": "U",
    "INTLDES": "13009A",
    "EPOCH": "2023-05-12 19:39:15",
    "EPOCH_MICROSECONDS": "281568",
    "MEAN_MOTION": "14.32188607",
    "ECCENTRICITY": "0.000266",
    "INCLINATION": "98.5483",
    "RA_OF_ASC_NODE": "318.6242",
    "ARG_OF_PERICENTER": "54.544",
    "MEAN_ANOMALY": "305.5992",
    "EPHEMERIS_TYPE": "0",
    "ELEMENT_SET_NO": "999",
    "REV_AT_EPOCH": "53362",
    "BSTAR": "0.000098252",
    "MEAN_MOTION_DOT": "0.00000221",
    "MEAN_MOTION_DDOT": "0",
    "FILE": "3906381",
    "TLE_LINE0": "0 SARAL",
    "TLE_LINE1": "1 39086U 13009A   23132.81892687  .00000221  00000-0  98252-4 0  9994",
    "TLE_LINE2": "2 39086  98.5483 318.6242 0002660  54.5440 305.5992 14.32188607533629",
    "OBJECT_ID": "2013-009A",
    "OBJECT_NUMBER": "39086",
    "SEMIMAJOR_AXIS": "7162.562",
    "PERIOD": "100.545",
    "APOGEE": "786.332",
    "PERIGEE": "782.521",
    "DECAYED": "0"
  },
  {
    "COMMENT": "GENERATED VIA SPACETRACK.ORG API",
    "ORIGINATOR": "18 SPCS",
    "NORAD_CAT_ID": "39086",
    "OBJECT_NAME": "SARAL",
    "OBJECT_TYPE": "PAYLOAD",
    "CLASSIFICATION_TYPE": "U",
    "INTLDES": "13009A",
    "EPOCH": "2023-05-13 04:02:16",
    "EPOCH_MICROSECONDS": "192608",
    "MEAN_MOTION": "14.32188641",
    "ECCENTRICITY": "0.0002649",
    "INCLINATION": "98.5483",
    "RA_OF_ASC_NODE": "318.9684",
    "ARG_OF_PERICENTER": "53.8217",
    "MEAN_ANOMALY": "306.3211",
    "EPHEMERIS_TYPE": "0",
    "ELEMENT_SET_NO": "999",
    "REV_AT_EPOCH": "53367",
    "BSTAR": "0.000090622",
    "MEAN_MOTION_DOT": "0.000002",
    "MEAN_MOTION_DDOT": "0",
    "FILE": "3906421",
    "TLE_LINE0": "0 SARAL",
    "TLE_LINE1": "1 39086U 13009A   23133.16824297  .00000200  00000-0  90622-4 0  9995",
    "TLE_LINE2": "2 39086  98.5483 318.9684 0002649  53.8217 306.3211 14.32188641533679",
    "OBJECT_ID": "2013-009A",
    "OBJECT_NUMBER": "39086",
    "SEMIMAJOR_AXIS": "7162.561",
    "PERIOD": "100.545",
    "APOGEE": "786.324",
    "PERIGEE": "782.529",
    "DECAYED": "0"
  },
  {
    "COMMENT": "GENERATED VIA SPACETRACK.ORG API",
    "ORIGINATOR": "18 SPCS",
    "NORAD_CAT_ID": "39086",
    "OBJECT_NAME": "SARAL",
    "OBJECT_TYPE": "PAYLOAD",
    "CLASSIFICATION_TYPE": "U",
    "INTLDES": "13009A",
    "EPOCH": "2023-05-13 12:25:17",
    "EPOCH_MICROSECONDS": "90688",
    "MEAN_MOTION": "14.32188718",
    "ECCENTRICITY": "0.0002631",
    "INCLINATION": "98.5483",
    "RA_OF_ASC_NODE": "319.3126",
    "ARG_OF_PERICENTER": "53.1678",
    "MEAN_ANOMALY": "306.9747",
    "EPHEMERIS_TYPE": "0",
    "ELEMENT_SET_NO": "999",
    "REV_AT_EPOCH": "53372",
    "BSTAR": "0.000083647",
    "MEAN_MOTION_DOT": "0.00000182",
    "MEAN_MOTION_DDOT": "0",
    "FILE": "3906915",
    "TLE_LINE0": "0 SARAL",
    "TLE_LINE1": "1 39086U 13009A   23133.51755892  .00000182  00000-0  83647-4 0  9996",
    "TLE_LINE2": "2 39086  98.5483 319.3126 0002631  53.1678 306.9747 14.32188718533721",
    "OBJECT_ID": "2013-009A",
    "OBJECT_NUMBER": "39086",
    "SEMIMAJOR_AXIS": "7162.561",
    "PERIOD": "100.545",
    "APOGEE": "786.311",
    "PERIGEE": "782.542",
    "DECAYED": "0"
  },
  {
    "COMMENT": "GENERATED VIA SPACETRACK.ORG API",
    "ORIGINATOR": "18 SPCS",
    "NORAD_CAT_ID": "39086",
    "OBJECT_NAME": "SARAL",
    "OBJECT_TYPE": "PAYLOAD",
    "CLASSIFICATION_TYPE": "U",
    "INTLDES": "13009A",
    "EPOCH": "2023-05-13 20:48:17",
    "EPOCH_MICROSECONDS": "988768",
    "MEAN_MOTION": "14.32188847",
    "ECCENTRICITY": "0.0002623",
    "INCLINATION": "98.5483",
    "RA_OF_ASC_NODE": "319.6569",
    "ARG_OF_PERICENTER": "52.4551",
    "MEAN_ANOMALY": "307.687",
    "EPHEMERIS_TYPE": "0",
    "ELEMENT_SET_NO": "999",
    "REV_AT_EPOCH": "53377",
    "BSTAR": "0.000080854",
    "MEAN_MOTION_DOT": "0.00000174",
    "MEAN_MOTION_DDOT": "0",
    "FILE": "3907148",
    "TLE_LINE0": "0 SARAL",
    "TLE_LINE1": "1 39086U 13009A   23133.86687487  .00000174  00000-0  80854-4 0  9996",
    "TLE_LINE2": "2 39086  98.5483 319.6569 0002623  52.4551 307.6870 14.32188847533771",
    "OBJECT_ID": "2013-009A",
    "OBJECT_NUMBER": "39086",
    "SEMIMAJOR_AXIS": "7162.561",
    "PERIOD": "100.545",
    "APOGEE": "786.304",
    "PERIGEE": "782.547",
    "DECAYED": "0"
  },
  {
    "COMMENT": "GENERATED VIA SPACETRACK.ORG API",
    "ORIGINATOR": "18 SPCS",
    "NORAD_CAT_ID": "39086",
    "OBJECT_NAME": "SARAL",
    "OBJECT_TYPE": "PAYLOAD",
    "CLASSIFICATION_TYPE": "U",
    "INTLDES": "13009A",
    "EPOCH": "2023-05-14 11:53:43",
    "EPOCH_MICROSECONDS": "594944",
    "MEAN_MOTION": "14.32189097",
    "ECCENTRICITY": "0.0002599",
    "INCLINATION": "98.5483",
    "RA_OF_ASC_NODE": "320.2765",
    "ARG_OF_PERICENTER": "51.1991",
    "MEAN_ANOMALY": "308.9424",
    "EPHEMERIS_TYPE": "0",
    "ELEMENT_SET_NO": "999",
    "REV_AT_EPOCH": "53386",
    "BSTAR": "0.000079521",
    "MEAN_MOTION_DOT": "0.00000171",
    "MEAN_MOTION_DDOT": "0",
    "FILE": "3907554",
    "TLE_LINE0": "0 SARAL",
    "TLE_LINE1": "1 39086U 13009A   23134.49564346  .00000171  00000-0  79521-4 0  9990",
    "TLE_LINE2": "2 39086  98.5483 320.2765 0002599  51.1991 308.9424 14.32189097533860",
    "OBJECT_ID": "2013-009A",
    "OBJECT_NUMBER": "39086",
    "SEMIMAJOR_AXIS": "7162.560",
    "PERIOD": "100.545",
    "APOGEE": "786.286",
    "PERIGEE": "782.563",
    "DECAYED": "0"
  },
  {
    "COMMENT": "GENERATED VIA SPACETRACK.ORG API",
    "ORIGINATOR": "18 SPCS",
    "NORAD_CAT_ID": "39086",
    "OBJECT_NAME": "SARAL",
    "OBJECT_TYPE": "PAYLOAD",
    "CLASSIFICATION_TYPE": "U",
    "INTLDES": "13009A",
    "EPOCH": "2023-05-14 13:34:19",
    "EPOCH_MICROSECONDS": "772832",
    "MEAN_MOTION": "14.32189129",
    "ECCENTRICITY": "0.0002596",
    "INCLINATION": "98.5483",
    "RA_OF_ASC_NODE": "320.3453",
    "ARG_OF_PERICENTER": "51.0793",
    "MEAN_ANOMALY": "309.0622",
    "EPHEMERIS_TYPE": "0",
    "ELEMENT_SET_NO": "999",
    "REV_AT_EPOCH": "53387",
    "BSTAR": "0.000079554",
    "MEAN_MOTION_DOT": "0.00000171",
    "MEAN_MOTION_DDOT": "0",
    "FILE": "3907744",
    "TLE_LINE0": "0 SARAL",
    "TLE_LINE1": "1 39086U 13009A   23134.56550663  .00000171  00000-0  79554-4 0  9991",
    "TLE_LINE2": "2 39086  98.5483 320.3453 0002596  51.0793 309.0622 14.32189129533870",
    "OBJECT_ID": "2013-009A",
    "OBJECT_NUMBER": "39086",
    "SEMIMAJOR_AXIS": "7162.560",
    "PERIOD": "100.545",
    "APOGEE": "786.284",
    "PERIGEE": "782.565",
    "DECAYED": "0"
  },
  {
    "COMMENT": "GENERATED VIA SPACETRACK.ORG API",
    "ORIGINATOR": "18 SPCS",
    "NORAD_CAT_ID": "39086",
    "OBJECT_NAME": "SARAL",
    "OBJECT_TYPE": "PAYLOAD",
    "CLASSIFICATION_TYPE": "U",
    "INTLDES": "13009A",
    "EPOCH": "2023-05-14 20:16:44",
    "EPOCH_MICROSECONDS": "480064",
    "MEAN_MOTION": "14.32189245",
    "ECCENTRICITY": "0.0002587",
    "INCLINATION": "98.5483",
    "RA_OF_ASC_NODE": "320.6207",
    "ARG_OF_PERICENTER": "50.5523",
    "MEAN_ANOMALY": "309.589",
    "EPHEMERIS_TYPE": "0",
    "ELEMENT_SET_NO": "999",
    "REV_AT_EPOCH": "53391",
    "BSTAR": "0.000077543",
    "MEAN_MOTION_DOT": "0.00000165",
    "MEAN_MOTION_DDOT": "0",
    "FILE": "3908005",
    "TLE_LINE0": "0 SARAL",
    "TLE_LINE1": "1 39086U 13009A   23134.84495926  .00000165  00000-0  77543-4 0  9991",
    "TLE_LINE2": "2 39086  98.5483 320.6207 0002587  50.5523 309.5890 14.32189245533911",
    "OBJECT_ID": "2013-009A",
    "OBJECT_NUMBER": "39086",
    "SEMIMAJOR_AXIS": "7162.559",
    "PERIOD": "100.545",
    "APOGEE": "786.277",
    "PERIGEE": "782.571",
    "DECAYED": "0"
  }
]